{
    "links": {
        "self": "http://www.neowsapp.com/rest/v1/neo/3698841?api_key=iIulBulltgU6a56xZRHN4H3l9WmuAYTsLGpBGhQ2"
    },
    "id": "3698841",
    "neo_reference_id": "3698841",
    "name": "(2014 WO202)",
    "designation": "2014 WO202",
    "nasa_jpl_url": "http://ssd.jpl.nasa.gov/sbdb.cgi?sstr=3698841",
    "absolute_magnitude_h": 21.9,
    "estimated_diameter": {
        "kilometers": {
            "estimated_diameter_min": 0.1108038821,
            "estimated_diameter_max": 0.2477650126
        },
        "meters": {
            "estimated_diameter_min": 110.8038821264,
            "estimated_diameter_max": 247.7650126055
        },
        "miles": {
            "estimated_diameter_min": 0.068850319,
            "estimated_diameter_max": 0.1539539936
        },
        "feet": {
            "estimated_diameter_min": 363.5298086356,
            "estimated_diameter_max": 812.8773639568
        }
    },
    "is_potentially_hazardous_asteroid": false,
    "close_approach_data": [
        {
            "close_approach_date": "2014-11-20",
            "close_approach_date_full": "2014-Nov-20 08:47",
            "epoch_date_close_approach": 1416473220000,
            "relative_velocity": {
                "kilometers_per_second": "7.1480691393",
                "kilometers_per_hour": "25733.0489014231",
                "miles_per_hour": "15989.5158576648"
            },
            "miss_distance": {
                "astronomical": "0.2754154376",
                "lunar": "107.1366052264",
                "kilometers": "41201562.830077912",
                "miles": "25601463.9869507056"
            },
            "orbiting_body": "Earth"
        },
        {
            "close_approach_date": "2123-11-18",
            "close_approach_date_full": "2123-Nov-18 18:53",
            "epoch_date_close_approach": 4856007180000,
            "relative_velocity": {
                "kilometers_per_second": "9.3575790046",
                "kilometers_per_hour": "33687.2844164248",
                "miles_per_hour": "20931.9684753057"
            },
            "miss_distance": {
                "astronomical": "0.4215663503",
                "lunar": "163.9893102667",
                "kilometers": "63065428.068553861",
                "miles": "39187039.8746148418"
            },
            "orbiting_body": "Earth"
        }
    ],
    "orbital_data": {
        "orbit_id": "9",
        "orbit_determination_date": "2017-04-06 08:37:13",
        "first_observation_date": "2014-11-21",
        "last_observation_date": "2014-12-19",
        "data_arc_in_days": 28,
        "observations_used": 31,
        "orbit_uncertainty": "7",
        "minimum_orbit_intersection": ".216811",
        "jupiter_tisserand_invariant": "3.030",
        "epoch_osculation": "2459000.5",
        "eccentricity": ".576435450561596",
        "semi_major_axis": "2.806245368097454",
        "inclination": "11.51303073571452",
        "ascending_node_longitude": "257.4365831108782",
        "orbital_period": "1717.065606198804",
        "perihelion_distance": "1.188626054951806",
        "perihelion_argument": "153.4455415648721",
        "aphelion_distance": "4.423864681243102",
        "perihelion_time": "2458686.888189317045",
        "mean_anomaly": "65.75185679468554",
        "mean_motion": ".2096600145622618",
        "equinox": "J2000",
        "orbit_class": {
            "orbit_class_type": "AMO",
            "orbit_class_description": "Near-Earth asteroid orbits similar to that of 1221 Amor",
            "orbit_class_range": "1.017 AU < q (perihelion) < 1.3 AU"
        }
    },
    "is_sentry_object": false
}